[
    {
        "Altitude(m)": 612513.8979334121,
        "Argument of Periapsis(deg)": 0.0,
        "Eccentricity": 0.0,
        "Inclination(deg)": 60.0,
        "Latitude(deg)": -28.135854296643224,
        "Longitude(deg)": 72.91313967634025,
        "Mean Anomaly(deg)": -147.27270000000004,
        "RAAN(deg)": 335.0,
        "Satellite Name": "Test1 1487",
        "Satellite Number": 1487,
        "Semi-Major Axis(m)": 6980739.136638005,
        "Time(s)": 0
    },
    {
        "Altitude(m)": 612708.2654202312,
        "Argument of Periapsis(deg)": 0.00010418945913296404,
        "Eccentricity": 0.0,
        "Inclination(deg)": 60.0,
        "Latitude(deg)": -28.647593176023015,
        "Longitude(deg)": 73.27037021975596,
        "Mean Anomaly(deg)": -146.65259385453817,
        "RAAN(deg)": 334.99957995086027,
        "Satellite Name": "Test1 1487",
        "Satellite Number": 1487,
        "Semi-Major Axis(m)": 6980739.136638005,
        "Time(s)": 10
    }
]